{"type": "FeatureCollection", "features": [ {"type": "Feature", "properties": {"norad_id": 39155, "name": "COSMOS 2485 (747)", "group": "glo-ops", "lat": 33.33131110572032, "lon": -118.0249093415237, "alt_km": 19122.934110216273, "timestamp": "2025-12-22T15:43:49.265343+00:00", "meta": {"OBJECT_NAME": "COSMOS 2485 (747)", "OBJECT_ID": "2013-019A", "EPOCH": "2025-12-20T02:56:15.241632", "MEAN_MOTION": 2.1310322, "ECCENTRICITY": 0.0024876, "INCLINATION": 65.3174, "RA_OF_ASC_NODE": 79.6189, "ARG_OF_PERICENTER": 230.2075, "MEAN_ANOMALY": 129.6042, "EPHEMERIS_TYPE": 0, "CLASSIFICATION_TYPE": "U", "NORAD_CAT_ID": 39155, "ELEMENT_SET_NO": 999, "REV_AT_EPOCH": 9846, "BSTAR": 0, "MEAN_MOTION_DOT": -2e-07, "MEAN_MOTION_DDOT": 0}, "tle": {"line1": "1 39155U 13019A   25354.12239863 -.00000020  00000+0  00000+0 0  9991", "line2": "2 39155  65.3174  79.6189 0024876 230.2075 129.6042  2.13103220 98462"}}, "geometry": {"type": "Point", "coordinates": [-118.0249093415237, 33.33131110572032]}}, {"type": "Feature", "properties": {"norad_id": 39620, "name": "COSMOS 2492 (754)", "group": "glo-ops", "lat": 4.68235700016243, "lon": 137.7682744040805, "alt_km": 19156.94552529944, "timestamp": "2025-12-22T15:43:49.265361+00:00", "meta": {"OBJECT_NAME": "COSMOS 2492 (754)", "OBJECT_ID": "2014-012A", "EPOCH": "2025-12-21T22:59:34.433088", "MEAN_MOTION": 2.13103396, "ECCENTRICITY": 0.00142426, "INCLINATION": 65.4026, "RA_OF_ASC_NODE": 319.9579, "ARG_OF_PERICENTER": 313.3292, "MEAN_ANOMALY": 46.5466, "EPHEMERIS_TYPE": 0, "CLASSIFICATION_TYPE": "U", "NORAD_CAT_ID": 39620, "ELEMENT_SET_NO": 999, "REV_AT_EPOCH": 9146, "BSTAR": 0, "MEAN_MOTION_DOT": -4.2e-07, "MEAN_MOTION_DDOT": 0}, "tle": {"line1": "1 39620U 14012A   25355.95803742 -.00000042  00000+0  00000+0 0  9991", "line2": "2 39620  65.4026 319.9579 0014242 313.3292  46.5466  2.13103396 91463"}}, "geometry": {"type": "Point", "coordinates": [137.7682744040805, 4.68235700016243]}}, {"type": "Feature", "properties": {"norad_id": 40001, "name": "COSMOS 2500 (755)", "group": "glo-ops", "lat": 38.262337055253795, "lon": -19.09130563557407, "alt_km": 19144.798505292147, "timestamp": "2025-12-22T15:43:49.265377+00:00", "meta": {"OBJECT_NAME": "COSMOS 2500 (755)", "OBJECT_ID": "2014-032A", "EPOCH": "2025-12-21T04:35:55.026240", "MEAN_MOTION": 2.13106227, "ECCENTRICITY": 0.00077299, "INCLINATION": 65.3386, "RA_OF_ASC_NODE": 319.7453, "ARG_OF_PERICENTER": 219.3736, "MEAN_ANOMALY": 140.5635, "EPHEMERIS_TYPE": 0, "CLASSIFICATION_TYPE": "U", "NORAD_CAT_ID": 40001, "ELEMENT_SET_NO": 999, "REV_AT_EPOCH": 8966, "BSTAR": 0, "MEAN_MOTION_DOT": -4.7e-07, "MEAN_MOTION_DDOT": 0}, "tle": {"line1": "1 40001U 14032A   25355.19160910 -.00000047  00000+0  00000+0 0  9992", "line2": "2 40001  65.3386 319.7453 0007729 219.3736 140.5635  2.13106227 89663"}}, "geometry": {"type": "Point", "coordinates": [-19.09130563557407, 38.262337055253795]}}, {"type": "Feature", "properties": {"norad_id": 40315, "name": "COSMOS 2501 (702K)", "group": "glo-ops", "lat": -21.022303640986433, "lon": 27.490858249300935, "alt_km": 19081.71649401625, "timestamp": "2025-12-22T15:43:49.265393+00:00", "meta": {"OBJECT_NAME": "COSMOS 2501 (702K)", "OBJECT_ID": "2014-075A", "EPOCH": "2025-12-19T02:31:27.452640", "MEAN_MOTION": 2.13101513, "ECCENTRICITY": 0.0020099, "INCLINATION": 63.6146, "RA_OF_ASC_NODE": 196.6046, "ARG_OF_PERICENTER": 204.1838, "MEAN_ANOMALY": 155.7988, "EPHEMERIS_TYPE": 0, "CLASSIFICATION_TYPE": "U", "NORAD_CAT_ID": 40315, "ELEMENT_SET_NO": 999, "REV_AT_EPOCH": 8601, "BSTAR": 0, "MEAN_MOTION_DOT": 1.06e-06, "MEAN_MOTION_DDOT": 0}, "tle": {"line1": "1 40315U 14075A   25353.10517885  .00000106  00000+0  00000+0 0  9998", "line2": "2 40315  63.6146 196.6046 0020099 204.1838 155.7988  2.13101513 86014"}}, "geometry": {"type": "Point", "coordinates": [27.490858249300935, -21.022303640986433]}}, {"type": "Feature", "properties": {"norad_id": 41330, "name": "COSMOS 2514 (751)", "group": "glo-ops", "lat": -32.10470550996634, "lon": 155.9559814447909, "alt_km": 19104.36219027624, "timestamp": "2025-12-22T15:43:49.265411+00:00", "meta": {"OBJECT_NAME": "COSMOS 2514 (751)", "OBJECT_ID": "2016-008A", "EPOCH": "2025-12-21T10:27:05.552352", "MEAN_MOTION": 2.13102677, "ECCENTRICITY": 0.0011723, "INCLINATION": 65.1288, "RA_OF_ASC_NODE": 319.1063, "ARG_OF_PERICENTER": 220.1275, "MEAN_ANOMALY": 139.7798, "EPHEMERIS_TYPE": 0, "CLASSIFICATION_TYPE": "U", "NORAD_CAT_ID": 41330, "ELEMENT_SET_NO": 999, "REV_AT_EPOCH": 7683, "BSTAR": 0, "MEAN_MOTION_DOT": -4.6e-07, "MEAN_MOTION_DDOT": 0}, "tle": {"line1": "1 41330U 16008A   25355.43548093 -.00000046  00000+0  00000+0 0  9991", "line2": "2 41330  65.1288 319.1063 0011723 220.1275 139.7798  2.13102677 76836"}}, "geometry": {"type": "Point", "coordinates": [155.9559814447909, -32.10470550996634]}}, {"type": "Feature", "properties": {"norad_id": 42939, "name": "COSMOS 2522 (752)", "group": "glo-ops", "lat": -17.964484373004883, "lon": -171.1830140963609, "alt_km": 19139.74078016592, "timestamp": "2025-12-22T15:43:49.265427+00:00", "meta": {"OBJECT_NAME": "COSMOS 2522 (752)", "OBJECT_ID": "2017-055A", "EPOCH": "2025-12-20T19:18:35.639424", "MEAN_MOTION": 2.13102071, "ECCENTRICITY": 0.00063061, "INCLINATION": 64.0764, "RA_OF_ASC_NODE": 197.9542, "ARG_OF_PERICENTER": 223.7674, "MEAN_ANOMALY": 136.256, "EPHEMERIS_TYPE": 0, "CLASSIFICATION_TYPE": "U", "NORAD_CAT_ID": 42939, "ELEMENT_SET_NO": 999, "REV_AT_EPOCH": 6417, "BSTAR": 0, "MEAN_MOTION_DOT": 9.9e-07, "MEAN_MOTION_DDOT": 0}, "tle": {"line1": "1 42939U 17055A   25354.80457916  .00000099  00000+0  00000+0 0  9990", "line2": "2 42939  64.0764 197.9542 0006306 223.7674 136.2560  2.13102071 64177"}}, "geometry": {"type": "Point", "coordinates": [-171.1830140963609, -17.964484373004883]}}, {"type": "Feature", "properties": {"norad_id": 43508, "name": "COSMOS 2527 (756)", "group": "glo-ops", "lat": 9.03048223980094, "lon": 83.96713142669691, "alt_km": 19147.37784119493, "timestamp": "2025-12-22T15:43:49.265442+00:00", "meta": {"OBJECT_NAME": "COSMOS 2527 (756)", "OBJECT_ID": "2018-053A", "EPOCH": "2025-12-22T04:09:24.890400", "MEAN_MOTION": 2.13102387, "ECCENTRICITY": 0.0008916, "INCLINATION": 65.4774, "RA_OF_ASC_NODE": 79.8162, "ARG_OF_PERICENTER": 227.1268, "MEAN_ANOMALY": 132.8398, "EPHEMERIS_TYPE": 0, "CLASSIFICATION_TYPE": "U", "NORAD_CAT_ID": 43508, "ELEMENT_SET_NO": 999, "REV_AT_EPOCH": 5850, "BSTAR": 0, "MEAN_MOTION_DOT": -3e-08, "MEAN_MOTION_DDOT": 0}, "tle": {"line1": "1 43508U 18053A   25356.17320475 -.00000003  00000+0  00000+0 0  9999", "line2": "2 43508  65.4774  79.8162 0008916 227.1268 132.8398  2.13102387 58509"}}, "geometry": {"type": "Point", "coordinates": [83.96713142669691, 9.03048223980094]}}, {"type": "Feature", "properties": {"norad_id": 43687, "name": "COSMOS 2529 (757)", "group": "glo-ops", "lat": -54.56122298016701, "lon": 155.92640173400414, "alt_km": 19122.748233166956, "timestamp": "2025-12-22T15:43:49.265457+00:00", "meta": {"OBJECT_NAME": "COSMOS 2529 (757)", "OBJECT_ID": "2018-086A", "EPOCH": "2025-12-21T19:13:53.194368", "MEAN_MOTION": 2.13102139, "ECCENTRICITY": 0.00069117, "INCLINATION": 64.2926, "RA_OF_ASC_NODE": 198.5821, "ARG_OF_PERICENTER": 253.6836, "MEAN_ANOMALY": 106.3102, "EPHEMERIS_TYPE": 0, "CLASSIFICATION_TYPE": "U", "NORAD_CAT_ID": 43687, "ELEMENT_SET_NO": 999, "REV_AT_EPOCH": 5550, "BSTAR": 0, "MEAN_MOTION_DOT": 9.6e-07, "MEAN_MOTION_DDOT": 0}, "tle": {"line1": "1 43687U 18086A   25355.80131012  .00000096  00000+0  00000+0 0  9990", "line2": "2 43687  64.2926 198.5821 0006911 253.6836 106.3102  2.13102139 55503"}}, "geometry": {"type": "Point", "coordinates": [155.92640173400414, -54.56122298016701]}}, {"type": "Feature", "properties": {"norad_id": 44299, "name": "COSMOS 2534 (758)", "group": "glo-ops", "lat": 57.70474523925764, "lon": -111.96237008495439, "alt_km": 19141.814598310844, "timestamp": "2025-12-22T15:43:49.265471+00:00", "meta": {"OBJECT_NAME": "COSMOS 2534 (758)", "OBJECT_ID": "2019-030A", "EPOCH": "2025-12-21T10:55:51.060576", "MEAN_MOTION": 2.13102432, "ECCENTRICITY": 0.00087289, "INCLINATION": 64.366, "RA_OF_ASC_NODE": 198.5992, "ARG_OF_PERICENTER": 284.1192, "MEAN_ANOMALY": 304.9695, "EPHEMERIS_TYPE": 0, "CLASSIFICATION_TYPE": "U", "NORAD_CAT_ID": 44299, "ELEMENT_SET_NO": 999, "REV_AT_EPOCH": 5113, "BSTAR": 0, "MEAN_MOTION_DOT": 9.7e-07, "MEAN_MOTION_DDOT": 0}, "tle": {"line1": "1 44299U 19030A   25355.45545209  .00000097  00000+0  00000+0 0  9999", "line2": "2 44299  64.3660 198.5992 0008728 284.1192 304.9695  2.13102432 51134"}}, "geometry": {"type": "Point", "coordinates": [-111.96237008495439, 57.70474523925764]}}, {"type": "Feature", "properties": {"norad_id": 44850, "name": "COSMOS 2544 (759)", "group": "glo-ops", "lat": 46.110861594516074, "lon": 107.93619262844084, "alt_km": 19159.361663332536, "timestamp": "2025-12-22T15:43:49.265487+00:00", "meta": {"OBJECT_NAME": "COSMOS 2544 (759)", "OBJECT_ID": "2019-088A", "EPOCH": "2025-12-22T02:49:35.423040", "MEAN_MOTION": 2.13102165, "ECCENTRICITY": 0.00143115, "INCLINATION": 65.4645, "RA_OF_ASC_NODE": 79.6449, "ARG_OF_PERICENTER": 250.2994, "MEAN_ANOMALY": 109.5877, "EPHEMERIS_TYPE": 0, "CLASSIFICATION_TYPE": "U", "NORAD_CAT_ID": 44850, "ELEMENT_SET_NO": 999, "REV_AT_EPOCH": 4694, "BSTAR": 0, "MEAN_MOTION_DOT": -3e-08, "MEAN_MOTION_DDOT": 0}, "tle": {"line1": "1 44850U 19088A   25356.11777110 -.00000003  00000+0  00000+0 0  9995", "line2": "2 44850  65.4645  79.6449 0014311 250.2994 109.5877  2.13102165 46944"}}, "geometry": {"type": "Point", "coordinates": [107.93619262844084, 46.110861594516074]}}]}